KUIPER-00095            
1 65134U 25171C   25286.89859815  .00043204  00000+0  11772-2 0  9993
2 65134  51.8728  98.9522 0004123  16.4592 343.6528 15.37046161 10998
KUIPER-00096            
1 65135U 25171D   25286.88517228  .00046406  00000+0  12473-2 0  9998
2 65135  51.8739  98.8642 0004896 359.2793   0.8186 15.37434237 10998
KUIPER-00097            
1 65136U 25171E   25286.91668981 -.00562151  00000+0 -19989-1 0  9996
2 65136  51.8766  98.9898 0004667   8.7150  17.0143 15.30860089  4168
KUIPER-00098            
1 65137U 25171F   25286.91668981 -.00535470  00000+0 -21599-1 0  9991
2 65137  51.8785  99.0322 0006273 358.6044  25.9550 15.26644706  4844
KUIPER-00099            
1 65138U 25171G   25286.94092246  .00045047  00000+0  11973-2 0  9990
2 65138  51.8749  98.5006 0005502 347.8427  12.2426 15.37790325 10992
KUIPER-00100            
1 65139U 25171H   25286.88486358  .00044853  00000+0  12019-2 0  9991
2 65139  51.8743  98.8614 0004750 357.5500   2.5463 15.37542794 10986
KUIPER-00102            
1 65140U 25171J   25286.89900190  .00025437  00000+0  69790-3 0  9995
2 65140  51.8741  98.9520 0004350   7.7594 352.3459 15.37096875 10981
KUIPER-00103            
1 65141U 25171K   25286.91668981 -.01220204  00000+0 -85821-1 0  9991
2 65141  51.8900 101.5848 0005853  10.9361 205.3338 15.07886877  5174
